[{"OBJECT_NAME":"STARLINK-31685","OBJECT_ID":"2024-076Q","EPOCH":"2026-03-09T05:03:49.958496","MEAN_MOTION":15.27574062,"ECCENTRICITY":1.913e-5,"INCLINATION":43.0015,"RA_OF_ASC_NODE":11.3381,"ARG_OF_PERICENTER":282.1997,"MEAN_ANOMALY":77.8834,"EPHEMERIS_TYPE":0,"CLASSIFICATION_TYPE":"U","NORAD_CAT_ID":59578,"ELEMENT_SET_NO":999,"REV_AT_EPOCH":10643,"BSTAR":-6.1183873e-5,"MEAN_MOTION_DOT":-1.944e-5,"MEAN_MOTION_DDOT":0},{"OBJECT_NAME":"OBJECT H","OBJECT_ID":"2025-055H","EPOCH":"2026-03-09T23:29:50.051328","MEAN_MOTION":15.30330066,"ECCENTRICITY":0.00075967,"INCLINATION":97.636,"RA_OF_ASC_NODE":211.9572,"ARG_OF_PERICENTER":140.4354,"MEAN_ANOMALY":219.7441,"EPHEMERIS_TYPE":0,"CLASSIFICATION_TYPE":"U","NORAD_CAT_ID":63298,"ELEMENT_SET_NO":999,"REV_AT_EPOCH":5423,"BSTAR":0.0015582864,"MEAN_MOTION_DOT":0.00045901,"MEAN_MOTION_DDOT":0}]
